CTC2_L_00065016-03
1 10062U 22284GR  26075.70041667  .00000000  00000+0  00000-0 0  9997
2 10062  75.0000 180.0000 0000000   0.0000   0.0000 15.38683946    16
CTC2_L_00065016-04
1 10063U 26745SW  26075.70041667  .00000000  00000+0  00000-0 0  9994
2 10063  75.0000 180.0000 0000000   0.0000  90.0000 15.38683946    16
CTC2_L_00065017-01
1 10064U 23312RS  26075.70041667  .00000000  00000+0  00000-0 0  9992
2 10064  75.0000 192.0000 0000000   0.0000 192.0000 15.38683946    13
CTC2_L_00065017-02
1 10065U 24345C   26075.70041667  .00000000  00000+0  00000-0 0  9990
2 10065  75.0000 192.0000 0000000   0.0000 282.0000 15.38683946    14
CTC2_L_00065017-03
1 10066U 25654HO  26075.70041667  .00000000  00000+0  00000-0 0  9995
2 10066  75.0000 192.0000 0000000   0.0000  12.0000 15.38683946    16
CTC2_L_00065017-04
1 10067U 23777OU  26075.70041667  .00000000  00000+0  00000-0 0  9990
2 10067  75.0000 192.0000 0000000   0.0000 102.0000 15.38683946    17
CTC2_L_00065018-01
1 10068U 25862QZ  26075.70041667  .00000000  00000+0  00000-0 0  9998
2 10068  75.0000 204.0000 0000000   0.0000 204.0000 15.38683946    15
CTC2_L_00065018-02
1 10069U 26135C   26075.70041667  .00000000  00000+0  00000-0 0  9993
2 10069  75.0000 204.0000 0000000   0.0000 294.0000 15.38683946    15
CTC2_L_00065018-03
1 10070U 25883EQ  26075.70041667  .00000000  00000+0  00000-0 0  9994
2 10070  75.0000 204.0000 0000000   0.0000  24.0000 15.38683946    18
CTC2_L_00065018-04
1 10071U 22966WK  26075.70041667  .00000000  00000+0  00000-0 0  9994
2 10071  75.0000 204.0000 0000000   0.0000 114.0000 15.38683946    19
CTC2_L_00065019-01
1 10072U 26245MN  26075.70041667  .00000000  00000+0  00000-0 0  9999
2 10072  75.0000 216.0000 0000000   0.0000 216.0000 15.38683946    16
CTC2_L_00065019-02
1 10073U 23763BV  26075.70041667  .00000000  00000+0  00000-0 0  9992
2 10073  75.0000 216.0000 0000000   0.0000 306.0000 15.38683946    17
CTC2_L_00065019-03
1 10074U 25534RI  26075.70041667  .00000000  00000+0  00000-0 0  9991
2 10074  75.0000 216.0000 0000000   0.0000  36.0000 15.38683946    18
CTC2_L_00065019-04
1 10075U 26641TK  26075.70041667  .00000000  00000+0  00000-0 0  9992
2 10075  75.0000 216.0000 0000000   0.0000 126.0000 15.38683946    19
CTC2_L_00065020-01
1 10076U 26508FJ  26075.70041667  .00000000  00000+0  00000-0 0  9995
2 10076  75.0000 228.0000 0000000   0.0000 228.0000 15.38683946    16
CTC2_L_00065020-02
1 10077U 22861AX  26075.70041667  .00000000  00000+0  00000-0 0  9994
2 10077  75.0000 228.0000 0000000   0.0000 318.0000 15.38683946    17
CTC2_L_00065020-03
1 10078U 24125O   26075.70041667  .00000000  00000+0  00000-0 0  9990
2 10078  75.0000 228.0000 0000000   0.0000  48.0000 15.38683946    18
CTC2_L_00065020-04
1 10079U 23811FF  26075.70041667  .00000000  00000+0  00000-0 0  9992
2 10079  75.0000 228.0000 0000000   0.0000 138.0000 15.38683946    19
CTC2_L_00065021-01
1 10080U 24899GQ  26075.70041667  .00000000  00000+0  00000-0 0  9991
2 10080  75.0000 240.0000 0000000   0.0000 240.0000 15.38683946    19
CTC2_L_00065021-02
1 10081U 25357FJ  26075.70041667  .00000000  00000+0  00000-0 0  9992
2 10081  75.0000 240.0000 0000000   0.0000 330.0000 15.38683946    10
CTC2_L_00065021-03
1 10082U 22372YZ  26075.70041667  .00000000  00000+0  00000-0 0  9997
2 10082  75.0000 240.0000 0000000   0.0000  60.0000 15.38683946    11
CTC2_L_00065021-04
1 10083U 25835ED  26075.70041667  .00000000  00000+0  00000-0 0  9995
2 10083  75.0000 240.0000 0000000   0.0000 150.0000 15.38683946    12
CTC2_L_00065022-01
1 10084U 25882MC  26075.70041667  .00000000  00000+0  00000-0 0  9998
2 10084  75.0000 252.0000 0000000   0.0000 252.0000 15.38683946    19
CTC2_L_00065022-02
1 10085U 22027MT  26075.70041667  .00000000  00000+0  00000-0 0  9997
2 10085  75.0000 252.0000 0000000   0.0000 342.0000 15.38683946    10
CTC2_L_00065022-03
1 10086U 22637WJ  26075.70041667  .00000000  00000+0  00000-0 0  9995
2 10086  75.0000 252.0000 0000000   0.0000  72.0000 15.38683946    11
CTC2_L_00065022-04
1 10087U 26559VW  26075.70041667  .00000000  00000+0  00000-0 0  9993
2 10087  75.0000 252.0000 0000000   0.0000 162.0000 15.38683946    12
CTC2_L_00065023-01
1 10088U 22077JW  26075.70041667  .00000000  00000+0  00000-0 0  9995
2 10088  75.0000 264.0000 0000000   0.0000 264.0000 15.38683946    19
CTC2_L_00065023-02
1 10089U 22710ZO  26075.70041667  .00000000  00000+0  00000-0 0  9990
2 10089  75.0000 264.0000 0000000   0.0000 354.0000 15.38683946    10
CTC2_L_00065023-03
1 10090U 25715JO  26075.70041667  .00000000  00000+0  00000-0 0  9990
2 10090  75.0000 264.0000 0000000   0.0000  84.0000 15.38683946    12
CTC2_L_00065023-04
1 10091U 22894BI  26075.70041667  .00000000  00000+0  00000-0 0  9996
2 10091  75.0000 264.0000 0000000   0.0000 174.0000 15.38683946    13
CTC2_L_00065024-01
1 10092U 22368YN  26075.70041667  .00000000  00000+0  00000-0 0  9993
2 10092  75.0000 276.0000 0000000   0.0000 276.0000 15.38683946    10
CTC2_L_00065024-02
1 10093U 22984NP  26075.70041667  .00000000  00000+0  00000-0 0  9998
2 10093  75.0000 276.0000 0000000   0.0000   6.0000 15.38683946    12
CTC2_L_00065024-03
1 10094U 26315FE  26075.70041667  .00000000  00000+0  00000-0 0  9991
2 10094  75.0000 276.0000 0000000   0.0000  96.0000 15.38683946    12
CTC2_L_00065024-04
1 10095U 25617TB  26075.70041667  .00000000  00000+0  00000-0 0  9996
2 10095  75.0000 276.0000 0000000   0.0000 186.0000 15.38683946    13
CTC2_L_00065025-01
1 10096U 26385EW  26075.70041667  .00000000  00000+0  00000-0 0  9990
2 10096  75.0000 288.0000 0000000   0.0000 288.0000 15.38683946    10
CTC2_L_00065025-02
1 10097U 24583CG  26075.70041667  .00000000  00000+0  00000-0 0  9999
2 10097  75.0000 288.0000 0000000   0.0000  18.0000 15.38683946    12
CTC2_L_00065025-03
1 10098U 26525GO  26075.70041667  .00000000  00000+0  00000-0 0  9998
2 10098  75.0000 288.0000 0000000   0.0000 108.0000 15.38683946    13
CTC2_L_00065025-04
1 10099U 25611RC  26075.70041667  .00000000  00000+0  00000-0 0  9994
2 10099  75.0000 288.0000 0000000   0.0000 198.0000 15.38683946    13
CTC2_L_00065026-01
1 10100U 22235DR  26075.70041667  .00000000  00000+0  00000-0 0  9996
2 10100  75.0000 300.0000 0000000   0.0000 300.0000 15.38683946    16
CTC2_L_00065026-02
1 10101U 25256ZR  26075.70041667  .00000000  00000+0  00000-0 0  9993
2 10101  75.0000 300.0000 0000000   0.0000  30.0000 15.38683946    17
CTC2_L_00065026-03
1 10102U 22525OG  26075.70041667  .00000000  00000+0  00000-0 0  9990
2 10102  75.0000 300.0000 0000000   0.0000 120.0000 15.38683946    18
CTC2_L_00065026-04
1 10103U 23371OZ  26075.70041667  .00000000  00000+0  00000-0 0  9991
2 10103  75.0000 300.0000 0000000   0.0000 210.0000 15.38683946    19
CTC2_L_00065027-01
1 10104U 22206MS  26075.70041667  .00000000  00000+0  00000-0 0  9998
2 10104  75.0000 312.0000 0000000   0.0000 312.0000 15.38683946    16
CTC2_L_00065027-02
1 10105U 22825AB  26075.70041667  .00000000  00000+0  00000-0 0  9996
2 10105  75.0000 312.0000 0000000   0.0000  42.0000 15.38683946    17
CTC2_L_00065027-03
1 10106U 22920AJ  26075.70041667  .00000000  00000+0  00000-0 0  9993
2 10106  75.0000 312.0000 0000000   0.0000 132.0000 15.38683946    18
CTC2_L_00065027-04
1 10107U 24458LZ  26075.70041667  .00000000  00000+0  00000-0 0  9992
2 10107  75.0000 312.0000 0000000   0.0000 222.0000 15.38683946    19
CTC2_L_00065028-01
1 10108U 26714MW  26075.70041667  .00000000  00000+0  00000-0 0  9990
2 10108  75.0000 324.0000 0000000   0.0000 324.0000 15.38683946    16
CTC2_L_00065028-02
1 10109U 23772TY  26075.70041667  .00000000  00000+0  00000-0 0  9992
2 10109  75.0000 324.0000 0000000   0.0000  54.0000 15.38683946    17
CTC2_L_00065028-03
1 10110U 25698WO  26075.70041667  .00000000  00000+0  00000-0 0  9993
2 10110  75.0000 324.0000 0000000   0.0000 144.0000 15.38683946    19
CTC2_L_00065028-04
1 10111U 26695JY  26075.70041667  .00000000  00000+0  00000-0 0  9992
2 10111  75.0000 324.0000 0000000   0.0000 234.0000 15.38683946    10
CTC2_L_00065029-01
1 10112U 23899HL  26075.70041667  .00000000  00000+0  00000-0 0  9996
2 10112  75.0000 336.0000 0000000   0.0000 336.0000 15.38683946    17
CTC2_L_00065029-02
1 10113U 25050YZ  26075.70041667  .00000000  00000+0  00000-0 0  9998
2 10113  75.0000 336.0000 0000000   0.0000  66.0000 15.38683946    18
CTC2_L_00065029-03
1 10114U 25812TJ  26075.70041667  .00000000  00000+0  00000-0 0  9995
2 10114  75.0000 336.0000 0000000   0.0000 156.0000 15.38683946    19
CTC2_L_00065029-04
1 10115U 26902VM  26075.70041667  .00000000  00000+0  00000-0 0  9997
2 10115  75.0000 336.0000 0000000   0.0000 246.0000 15.38683946    10
CTC2_L_00065030-01
1 10116U 24917FP  26075.70041667  .00000000  00000+0  00000-0 0  9992
2 10116  75.0000 348.0000 0000000   0.0000 348.0000 15.38683946    17
CTC2_L_00065030-02
1 10117U 22138IH  26075.70041667  .00000000  00000+0  00000-0 0  9996
2 10117  75.0000 348.0000 0000000   0.0000  78.0000 15.38683946    18
CTC2_L_00065030-03
1 10118U 26557BZ  26075.70041667  .00000000  00000+0  00000-0 0  9996
2 10118  75.0000 348.0000 0000000   0.0000 168.0000 15.38683946    19
CTC2_L_00065030-04
1 10119U 24123SW  26075.70041667  .00000000  00000+0  00000-0 0  9994
2 10119  75.0000 348.0000 0000000   0.0000 258.0000 15.38683946    10
